[{"OBJECT_NAME":"PHISAT 2","OBJECT_ID":"2024-149C","EPOCH":"2026-03-09T18:55:12.732384","MEAN_MOTION":15.29548632,"ECCENTRICITY":0.00011753,"INCLINATION":97.3806,"RA_OF_ASC_NODE":148.6498,"ARG_OF_PERICENTER":168.623,"MEAN_ANOMALY":191.5037,"EPHEMERIS_TYPE":0,"CLASSIFICATION_TYPE":"U","NORAD_CAT_ID":60470,"ELEMENT_SET_NO":999,"REV_AT_EPOCH":8679,"BSTAR":0.00031420974,"MEAN_MOTION_DOT":8.925e-5,"MEAN_MOTION_DDOT":0},{"OBJECT_NAME":"STARLINK-35705","OBJECT_ID":"2025-294K","EPOCH":"2026-03-09T23:15:18.049824","MEAN_MOTION":15.2759034,"ECCENTRICITY":0.00014908,"INCLINATION":43.0037,"RA_OF_ASC_NODE":36.3444,"ARG_OF_PERICENTER":249.2115,"MEAN_ANOMALY":110.8577,"EPHEMERIS_TYPE":0,"CLASSIFICATION_TYPE":"U","NORAD_CAT_ID":67039,"ELEMENT_SET_NO":999,"REV_AT_EPOCH":1484,"BSTAR":0.0011698108,"MEAN_MOTION_DOT":0.00032079,"MEAN_MOTION_DDOT":0}]
